[Satellite]
VERSION=1.1
NAME=ERBS
NICKNAME=ERBS
TLE1=1 15354U 84108B   20158.17841636  .00001982  00000-0  43016-4 0  9999
TLE2=2 15354  57.0050 124.8194 0013112  48.4215 311.7964 15.49560891966086
STATUS=0
